{
  "type": "FeatureCollection",
  "features": [
    {
      "type": "Feature",
      "properties": {
        "norad_id": 52912,
        "name": "GAOFEN-12 03",
        "group": "resource",
        "lat": -78.05182305942985,
        "lon": -76.69028318912574,
        "alt_km": 638.7643806003643,
        "timestamp": "2025-12-21T11:31:42.499743+00:00",
        "meta_object_name": "GAOFEN-12 03",
        "meta_object_id": "2022-069A",
        "meta_epoch": "2025-12-21T05:24:06.768576",
        "meta_mean_motion": 14.79626548,
        "meta_eccentricity": 0.0001973,
        "meta_inclination": 97.8488,
        "meta_ra_of_asc_node": 242.3775,
        "meta_arg_of_pericenter": 51.5475,
        "meta_mean_anomaly": 308.5914,
        "meta_ephemeris_type": 0,
        "meta_classification_type": "U",
        "meta_norad_cat_id": 52912,
        "meta_element_set_no": 999,
        "meta_rev_at_epoch": 18829,
        "meta_bstar": 7.4873e-05,
        "meta_mean_motion_dot": 5.11e-06,
        "meta_mean_motion_ddot": 0,
        "tle_line1": "1 52912U 22069A   25355.22507834  .00000511  00000+0  74873-4 0  9998",
        "tle_line2": "2 52912  97.8488 242.3775 0001973  51.5475 308.5914 14.79626548188292"
      },
      "geometry": {
        "type": "Point",
        "coordinates": [
          -76.69028318912574,
          -78.05182305942985
        ]
      }
    },
    {
      "type": "Feature",
      "properties": {
        "norad_id": 54754,
        "name": "SWOT",
        "group": "resource",
        "lat": -72.9735535081258,
        "lon": -130.67819154454705,
        "alt_km": 900.6075769188765,
        "timestamp": "2025-12-21T11:31:42.499754+00:00",
        "meta_object_name": "SWOT",
        "meta_object_id": "2022-173A",
        "meta_epoch": "2025-12-21T03:19:37.466976",
        "meta_mean_motion": 14.00167984,
        "meta_eccentricity": 3.6e-05,
        "meta_inclination": 77.6109,
        "meta_ra_of_asc_node": 275.6524,
        "meta_arg_of_pericenter": 89.5573,
        "meta_mean_anomaly": 270.562,
        "meta_ephemeris_type": 0,
        "meta_classification_type": "U",
        "meta_norad_cat_id": 54754,
        "meta_element_set_no": 999,
        "meta_rev_at_epoch": 15423,
        "meta_bstar": 1.9269e-06,
        "meta_mean_motion_dot": 0,
        "meta_mean_motion_ddot": 0,
        "tle_line1": "1 54754U 22173A   25355.13862809  .00000000  00000+0  19269-5 0  9998",
        "tle_line2": "2 54754  77.6109 275.6524 0000360  89.5573 270.5620 14.00167984154231"
      },
      "geometry": {
        "type": "Point",
        "coordinates": [
          -130.67819154454705,
          -72.9735535081258
        ]
      }
    },
    {
      "type": "Feature",
      "properties": {
        "norad_id": 57654,
        "name": "GAOFEN-12 04",
        "group": "resource",
        "lat": 81.91189783484774,
        "lon": 169.25563928690713,
        "alt_km": 621.9072672743669,
        "timestamp": "2025-12-21T11:31:42.499764+00:00",
        "meta_object_name": "GAOFEN-12 04",
        "meta_object_id": "2023-123A",
        "meta_epoch": "2025-12-21T04:37:27.348096",
        "meta_mean_motion": 14.79721734,
        "meta_eccentricity": 0.0001228,
        "meta_inclination": 97.9127,
        "meta_ra_of_asc_node": 270.8218,
        "meta_arg_of_pericenter": 77.7078,
        "meta_mean_anomaly": 282.4272,
        "meta_ephemeris_type": 0,
        "meta_classification_type": "U",
        "meta_norad_cat_id": 57654,
        "meta_element_set_no": 999,
        "meta_rev_at_epoch": 12630,
        "meta_bstar": 0.0001263,
        "meta_mean_motion_dot": 8.98e-06,
        "meta_mean_motion_ddot": 0,
        "tle_line1": "1 57654U 23123A   25355.19267764  .00000898  00000+0  12630-3 0  9999",
        "tle_line2": "2 57654  97.9127 270.8218 0001228  77.7078 282.4272 14.79721734126305"
      },
      "geometry": {
        "type": "Point",
        "coordinates": [
          169.25563928690713,
          81.91189783484774
        ]
      }
    },
    {
      "type": "Feature",
      "properties": {
        "norad_id": 59065,
        "name": "PARS 1",
        "group": "resource",
        "lat": -73.99792245533007,
        "lon": 119.39425865194269,
        "alt_km": 457.08659079395966,
        "timestamp": "2025-12-21T11:31:42.499774+00:00",
        "meta_object_name": "PARS 1",
        "meta_object_id": "2024-039Q",
        "meta_epoch": "2025-12-21T04:11:19.878432",
        "meta_mean_motion": 15.41151029,
        "meta_eccentricity": 0.0011984,
        "meta_inclination": 97.4643,
        "meta_ra_of_asc_node": 326.287,
        "meta_arg_of_pericenter": 46.5999,
        "meta_mean_anomaly": 313.6243,
        "meta_ephemeris_type": 0,
        "meta_classification_type": "U",
        "meta_norad_cat_id": 59065,
        "meta_element_set_no": 999,
        "meta_rev_at_epoch": 10118,
        "meta_bstar": 0.00021602,
        "meta_mean_motion_dot": 8.886e-05,
        "meta_mean_motion_ddot": 0,
        "tle_line1": "1 59065U 24039Q   25355.17453563  .00008886  00000+0  21602-3 0  9990",
        "tle_line2": "2 59065  97.4643 326.2870 0011984  46.5999 313.6243 15.41151029101185"
      },
      "geometry": {
        "type": "Point",
        "coordinates": [
          119.39425865194269,
          -73.99792245533007
        ]
      }
    },
    {
      "type": "Feature",
      "properties": {
        "norad_id": 59371,
        "name": "RESURS-P 4",
        "group": "resource",
        "lat": 62.55201149586146,
        "lon": 135.83092033495547,
        "alt_km": 462.95388810453096,
        "timestamp": "2025-12-21T11:31:42.499784+00:00",
        "meta_object_name": "RESURS-P 4",
        "meta_object_id": "2024-061A",
        "meta_epoch": "2025-12-21T04:45:07.587072",
        "meta_mean_motion": 15.32146526,
        "meta_eccentricity": 9.69e-05,
        "meta_inclination": 97.2559,
        "meta_ra_of_asc_node": 301.3549,
        "meta_arg_of_pericenter": 63.8683,
        "meta_mean_anomaly": 296.2659,
        "meta_ephemeris_type": 0,
        "meta_classification_type": "U",
        "meta_norad_cat_id": 59371,
        "meta_element_set_no": 999,
        "meta_rev_at_epoch": 9650,
        "meta_bstar": 9.323e-05,
        "meta_mean_motion_dot": 2.818e-05,
        "meta_mean_motion_ddot": 0,
        "tle_line1": "1 59371U 24061A   25355.19800448  .00002818  00000+0  93230-4 0  9991",
        "tle_line2": "2 59371  97.2559 301.3549 0000969  63.8683 296.2659 15.32146526 96501"
      },
      "geometry": {
        "type": "Point",
        "coordinates": [
          135.83092033495547,
          62.55201149586146
        ]
      }
    },
    {
      "type": "Feature",
      "properties": {
        "norad_id": 59625,
        "name": "LEGION 1",
        "group": "resource",
        "lat": -31.4349967320035,
        "lon": -114.58732540874931,
        "alt_km": 521.3746034461819,
        "timestamp": "2025-12-21T11:31:42.499795+00:00",
        "meta_object_name": "LEGION 1",
        "meta_object_id": "2024-081A",
        "meta_epoch": "2025-12-21T04:15:49.002336",
        "meta_mean_motion": 15.16554369,
        "meta_eccentricity": 0.000362,
        "meta_inclination": 97.5206,
        "meta_ra_of_asc_node": 69.7443,
        "meta_arg_of_pericenter": 279.0689,
        "meta_mean_anomaly": 81.0134,
        "meta_ephemeris_type": 0,
        "meta_classification_type": "U",
        "meta_norad_cat_id": 59625,
        "meta_element_set_no": 999,
        "meta_rev_at_epoch": 9055,
        "meta_bstar": 0.00017556,
        "meta_mean_motion_dot": 3.358e-05,
        "meta_mean_motion_ddot": 0,
        "tle_line1": "1 59625U 24081A   25355.17765049  .00003358  00000+0  17556-3 0  9996",
        "tle_line2": "2 59625  97.5206  69.7443 0003620 279.0689  81.0134 15.16554369 90554"
      },
      "geometry": {
        "type": "Point",
        "coordinates": [
          -114.58732540874931,
          -31.4349967320035
        ]
      }
    },
    {
      "type": "Feature",
      "properties": {
        "norad_id": 59626,
        "name": "LEGION 2",
        "group": "resource",
        "lat": 31.471415249524018,
        "lon": 65.49381363109016,
        "alt_km": 517.3311333669408,
        "timestamp": "2025-12-21T11:31:42.499805+00:00",
        "meta_object_name": "LEGION 2",
        "meta_object_id": "2024-081B",
        "meta_epoch": "2025-12-21T03:28:15.955104",
        "meta_mean_motion": 15.16568074,
        "meta_eccentricity": 0.0005647,
        "meta_inclination": 97.5209,
        "meta_ra_of_asc_node": 69.7995,
        "meta_arg_of_pericenter": 256.8666,
        "meta_mean_anomaly": 103.1937,
        "meta_ephemeris_type": 0,
        "meta_classification_type": "U",
        "meta_norad_cat_id": 59626,
        "meta_element_set_no": 999,
        "meta_rev_at_epoch": 9055,
        "meta_bstar": 0.00017654,
        "meta_mean_motion_dot": 3.379e-05,
        "meta_mean_motion_ddot": 0,
        "tle_line1": "1 59626U 24081B   25355.14462911  .00003379  00000+0  17654-3 0  9998",
        "tle_line2": "2 59626  97.5209  69.7995 0005647 256.8666 103.1937 15.16568074 90554"
      },
      "geometry": {
        "type": "Point",
        "coordinates": [
          65.49381363109016,
          31.471415249524018
        ]
      }
    }
  ]
}